IRIDIUM 106             
1 41917U 17003A   23302.05738087  .00000158  00000+0  49188-4 0  9998
2 41917  86.3943 130.6469 0002052  94.8345 265.3085 14.34217917355302
IRIDIUM 103             
1 41918U 17003B   23301.90517129  .00000146  00000+0  44968-4 0  9992
2 41918  86.3943 130.6132 0001774  86.3453 273.7946 14.34216735355302
IRIDIUM 109             
1 41919U 17003C   23301.91152027  .00000153  00000+0  47585-4 0  9992
2 41919  86.3944 130.6540 0002138  82.3115 277.8323 14.34216655355274
IRIDIUM 102             
1 41920U 17003D   23301.81003320  .00000151  00000+0  46845-4 0  9990
2 41920  86.3943 130.6406 0002250  84.4448 275.7004 14.34212426355346
IRIDIUM 105             
1 41921U 17003E   23301.92024047  .00000177  00000+0  56041-4 0  9999
2 41921  86.3928  99.0023 0002021  91.8402 268.3025 14.34209921357216
IRIDIUM 104             
1 41922U 17003F   23301.89248391  .00000145  00000+0  44577-4 0  9992
2 41922  86.3944 130.6341 0001951  83.7017 276.4401 14.34215923355342
IRIDIUM 114             
1 41923U 17003G   23301.89881898  .00000146  00000+0  44953-4 0  9997
2 41923  86.3944 130.6180 0002238  97.2636 262.8814 14.34218333355323
IRIDIUM 108             
1 41924U 17003H   23301.92710957  .00000160  00000+0  50244-4 0  9995
2 41924  86.3922  98.9391 0001968  99.2847 260.8572 14.34218541357181
